NORAD_CAT_ID,OBJECT_NAME,OBJECT_TYPE,EPOCH,MEAN_MOTION,ECCENTRICITY,INCLINATION,RA_OF_ASC_NODE,ARG_OF_PERICENTER,MEAN_ANOMALY,BSTAR,MEAN_MOTION_DOT,MEAN_MOTION_DDOT,TLE_LINE0,TLE_LINE1,TLE_LINE2,SEMIMAJOR_AXIS,PERIOD,APOGEE,PERIGEE,DECAYED
53388.0,STARLINK-4522,PAYLOAD,2023-01-19 13:33:42,15.0883774,0.0002156,53.2126,224.8004,57.8146,302.3055,9.5958e-05,1.239e-05,0.0,0 STARLINK-4522,1 53388U 22097A   23019.56507542  .00001239  00000-0  95958-4 0  9991,2 53388  53.2126 224.8004 0002156  57.8146 302.3055 15.08837740 25977,6917.887,95.438,541.244,538.261,0.0
53388.0,STARLINK-4522,PAYLOAD,2023-01-20 07:02:56,15.0884308,0.0002117,53.2128,221.5291,59.7128,300.4073,0.00010866,1.442e-05,0.0,0 STARLINK-4522,1 53388U 22097A   23020.29371210  .00001442  00000-0  10866-3 0  9994,2 53388  53.2128 221.5291 0002117  59.7128 300.4073 15.08843080 26085,6917.871,95.437,541.2,538.271,0.0
53388.0,STARLINK-4522,PAYLOAD,2023-01-20 21:21:24,15.08848324,0.0002098,53.2127,218.8524,61.2072,298.9131,0.00014923,2.088e-05,0.0,0 STARLINK-4522,1 53388U 22097A   23020.88986864  .00002088  00000-0  14923-3 0  9991,2 53388  53.2127 218.8524 0002098  61.2072 298.9131 15.08848324 25346,6917.855,95.437,541.1709999999999,538.269,0.0
53388.0,STARLINK-4522,PAYLOAD,2023-01-21 16:26:02,15.08839202,0.0001724,53.213,215.2812,73.6989,286.4193,0.00012575,1.714e-05,0.0,0 STARLINK-4522,1 53388U 22097A   23021.68475207  .00001714  00000-0  12575-3 0  9990,2 53388  53.2130 215.2812 0001724  73.6989 286.4193 15.08839202 25468,6917.883000000001,95.438,540.94,538.555,0.0
53388.0,STARLINK-4522,PAYLOAD,2023-01-22 19:27:35,15.08842265,0.0001971,53.2144,210.2292,68.535,291.5852,0.00010112,1.322e-05,0.0,0 STARLINK-4522,1 53388U 22097A   23022.81083080  .00001322  00000-0  10112-3 0  9990,2 53388  53.2144 210.2292 0001971  68.5350 291.5852 15.08842265 25630,6917.8730000000005,95.437,541.102,538.375,0.0
53388.0,STARLINK-4522,PAYLOAD,2023-01-23 12:56:50,15.08836056,0.0001863,53.2127,206.9562,63.265,296.8533,1.6149e-05,-3.1e-07,0.0,0 STARLINK-4522,1 53388U 22097A   23023.53947383 -.00000031  00000-0  16149-4 0  9999,2 53388  53.2127 206.9562 0001863  63.2650 296.8533 15.08836056 25745,6917.892,95.438,541.0459999999999,538.469,0.0
53388.0,STARLINK-4522,PAYLOAD,2023-01-23 19:18:22,15.08851993,0.0001933,53.214,205.7671,76.6632,283.4575,-7.853399999999999e-05,-1.538e-05,0.0,0 STARLINK-4522,1 53388U 22097A   23023.80442907 -.00001538  00000-0 -78534-4 0  9991,2 53388  53.2140 205.7671 0001933  76.6632 283.4575 15.08851993 25783,6917.844,95.437,541.0459999999999,538.372,0.0
53388.0,STARLINK-4522,PAYLOAD,2023-01-24 11:12:15,15.08825198,0.0001885999999999,53.2139,202.7934,69.3805,290.7389,0.00023401,3.437e-05,0.0,0 STARLINK-4522,1 53388U 22097A   23024.46684029  .00003437  00000-0  23401-3 0  9997,2 53388  53.2139 202.7934 0001886  69.3805 290.7389 15.08825198 25881,6917.926,95.438,541.095,538.486,0.0
53388.0,STARLINK-4522,PAYLOAD,2023-01-24 19:09:10,15.08840521,0.0001855,53.214,201.3066,69.3181,290.801,5.4598e-05,5.81e-06,0.0,0 STARLINK-4522,1 53388U 22097A   23024.79803463  .00000581  00000-0  54598-4 0  9997,2 53388  53.2140 201.3066 0001855  69.3181 290.8010 15.08840521 25932,6917.879,95.438,541.0269999999999,538.461,0.0
53388.0,STARLINK-4522,PAYLOAD,2023-01-25 06:16:52,15.08843222,0.0001809,53.214,199.2247,71.3044,288.8145,-8.196699999999999e-06,-4.19e-06,0.0,0 STARLINK-4522,1 53388U 22097A   23025.26171374 -.00000419  00000-0 -81967-5 0  9992,2 53388  53.2140 199.2247 0001809  71.3044 288.8145 15.08843222 26835,6917.871,95.437,540.987,538.484,0.0
53388.0,STARLINK-4522,PAYLOAD,2023-01-25 18:59:57,15.08841291,0.0001769,53.2141,196.8459,74.3533,285.7654,8.4391e-05,1.055e-05,0.0,0 STARLINK-4522,1 53388U 22097A   23025.79163361  .00001055  00000-0  84391-4 0  9995,2 53388  53.2141 196.8459 0001769  74.3533 285.7654 15.08841291 26919,6917.876,95.437,540.965,538.518,0.0
53388.0,STARLINK-4522,PAYLOAD,2023-01-26 15:39:58,15.08839185,0.0001789,53.2142,192.9799,76.2133,283.9058,6.6043e-05,7.63e-06,0.0,0 STARLINK-4522,1 53388U 22097A   23026.65275516  .00000763  00000-0  66043-4 0  9996,2 53388  53.2142 192.9799 0001789  76.2133 283.9058 15.08839185 26213,6917.883000000001,95.438,540.985,538.51,0.0
53388.0,STARLINK-4522,PAYLOAD,2023-01-27 13:55:22,15.08841299,0.0001958,53.2141,188.8177,76.126,283.9949,-4.753600000000001e-05,-1.045e-05,0.0,0 STARLINK-4522,1 53388U 22097A   23027.58011656 -.00001045  00000-0 -47536-4 0  9994,2 53388  53.2141 188.8177 0001958  76.1260 283.9949 15.08841299 27189,6917.876,95.437,541.096,538.387,0.0
53388.0,STARLINK-4522,PAYLOAD,2023-01-27 17:06:08,15.0883775,0.0001712,53.2141,188.2219,79.2241,280.8944,2.8392e-05,1.64e-06,0.0,0 STARLINK-4522,1 53388U 22097A   23027.71259628  .00000164  00000-0  28392-4 0  9990,2 53388  53.2141 188.2219 0001712  79.2241 280.8944 15.08837750 26379,6917.887,95.438,540.937,538.568,0.0
53388.0,STARLINK-4522,PAYLOAD,2023-01-28 13:46:09,15.0883565,0.0001431,53.2141,184.3546,91.1227,268.9929,3.3309e-05,2.42e-06,0.0,0 STARLINK-4522,1 53388U 22097A   23028.57371628  .00000242  00000-0  33309-4 0  9991,2 53388  53.2141 184.3546 0001431  91.1227 268.9929 15.08835650 27338,6917.894,95.438,540.749,538.769,0.0
53388.0,STARLINK-4522,PAYLOAD,2023-01-28 20:07:42,15.08830775,0.0002083,53.2149,183.17,54.81,305.3087,-5.3074e-05,-1.133e-05,0.0,0 STARLINK-4522,1 53388U 22097A   23028.83868577 -.00001133  00000-0 -53074-4 0  9997,2 53388  53.2149 183.1700 0002083  54.8100 305.3087 15.08830775 26541,6917.909,95.438,541.215,538.333,0.0
53388.0,STARLINK-4522,PAYLOAD,2023-01-29 13:36:58,15.08815506,0.000166,53.2143,179.8944,87.7685,272.3498,-8.5161e-05,-1.642e-05,0.0,0 STARLINK-4522,1 53388U 22097A   23029.56734301 -.00001642  00000-0 -85161-4 0  9992,2 53388  53.2143 179.8944 0001660  87.7685 272.3498 15.08815506 26656,6917.955,95.439,540.969,538.672,0.0
53388.0,STARLINK-4522,PAYLOAD,2023-01-29 16:47:44,15.088212,0.000164,53.2145,179.2993,86.0981,274.0198,-7.9376e-05,-1.55e-05,0.0,0 STARLINK-4522,1 53388U 22097A   23029.69982096 -.00001550  00000-0 -79376-4 0  9991,2 53388  53.2145 179.2993 0001640  86.0981 274.0198 15.08821200 27504,6917.938,95.439,540.937,538.668,0.0
53388.0,STARLINK-4522,PAYLOAD,2023-01-30 08:41:35,15.08833938,0.0001589,53.2152,176.3253,89.8346,270.2829,1.3826e-05,-6.8e-07,0.0,0 STARLINK-4522,1 53388U 22097A   23030.36221598 -.00000068  00000-0  13826-4 0  9990,2 53388  53.2152 176.3253 0001589  89.8346 270.2829 15.08833938 26775,6917.899,95.438,540.863,538.665,0.0
53388.0,STARLINK-4522,PAYLOAD,2023-01-30 11:52:21,15.08826377,0.0001723,53.2147,175.7318,85.1337,274.9852,0.00025926,3.839e-05,0.0,0 STARLINK-4522,1 53388U 22097A   23030.49469199  .00003839  00000-0  25926-3 0  9996,2 53388  53.2147 175.7318 0001723  85.1337 274.9852 15.08826377 27624,6917.922,95.438,540.979,538.595,0.0
53388.0,STARLINK-4522,PAYLOAD,2023-01-31 02:10:49,15.08836384,0.0001702,53.2147,173.0554,87.3672,272.7514,0.000249,3.677e-05,0.0,0 STARLINK-4522,1 53388U 22097A   23031.09084969  .00003677  00000-0  24900-3 0  9992,2 53388  53.2147 173.0554 0001702  87.3672 272.7514 15.08836384 26887,6917.891,95.438,540.934,538.579,0.0
53388.0,STARLINK-4522,PAYLOAD,2023-01-31 11:43:08,15.08843278,0.0001638,53.2145,171.2721,87.6205,272.4974,0.00023093,3.389e-05,0.0,0 STARLINK-4522,1 53388U 22097A   23031.48828868  .00003389  00000-0  23093-3 0  9991,2 53388  53.2145 171.2721 0001638  87.6205 272.4974 15.08843278 27770,6917.87,95.437,540.869,538.602,0.0
53388.0,STARLINK-4522,PAYLOAD,2023-01-31 18:04:40,15.08851824,0.0001643,53.2145,170.0826,86.84,273.278,0.00029073,4.343e-05,0.0,0 STARLINK-4522,1 53388U 22097A   23031.75324154  .00004343  00000-0  29073-3 0  9995,2 53388  53.2145 170.0826 0001643  86.8400 273.2780 15.08851824 26989,6917.844,95.437,540.846,538.573,0.0
53388.0,STARLINK-4522,PAYLOAD,2023-02-01 13:09:18,15.08847099,0.0001697,53.2146,166.5139,90.0937,270.025,5.8211e-05,6.39e-06,0.0,0 STARLINK-4522,1 53388U 22097A   23032.54812782  .00000639  00000-0  58211-4 0  9993,2 53388  53.2146 166.5139 0001697  90.0937 270.0250 15.08847099 27930,6917.859,95.437,540.898,538.55,0.0
53388.0,STARLINK-4522,PAYLOAD,2023-02-02 13:00:05,15.08840703,0.0001631,53.2139,162.0535,90.9357,269.1822,-7.0605e-05,-1.412e-05,0.0,0 STARLINK-4522,1 53388U 22097A   23033.54173032 -.00001412  00000-0 -70605-4 0  9995,2 53388  53.2139 162.0535 0001631  90.9357 269.1822 15.08840703 28082,6917.878,95.438,540.872,538.615,0.0
53388.0,STARLINK-4522,PAYLOAD,2023-02-03 11:15:29,15.08841839,0.0001595,53.2142,157.8901,92.2194,267.8981,-2.0867e-05,-6.2e-06,0.0,0 STARLINK-4522,1 53388U 22097A   23034.46908835 -.00000620  00000-0 -20867-4 0  9999,2 53388  53.2142 157.8901 0001595  92.2194 267.8981 15.08841839 28226,6917.875,95.437,540.843,538.636,0.0
53388.0,STARLINK-4522,PAYLOAD,2023-02-03 17:37:01,15.08840391,0.0001466,53.2148,156.7013,84.9144,275.2015,4.8065e-05,4.77e-06,0.0,0 STARLINK-4522,1 53388U 22097A   23034.73404674  .00000477  00000-0  48065-4 0  9999,2 53388  53.2148 156.7013 0001466  84.9144 275.2015 15.08840391 27439,6917.879,95.438,540.758,538.73,0.0
53388.0,STARLINK-4522,PAYLOAD,2023-02-04 14:17:01,15.08848778,0.0001358,53.2148,152.8349,87.8128,272.3019,0.00015691,2.211e-05,0.0,0 STARLINK-4522,1 53388U 22097A   23035.59515823  .00002211  00000-0  15691-3 0  9999,2 53388  53.2148 152.8349 0001358  87.8128 272.3019 15.08848778 27565,6917.854,95.437,540.658,538.779,0.0
53388.0,STARLINK-4522,PAYLOAD,2023-02-04 17:27:47,15.08853043,0.0001417,53.2145,152.2392,92.1266,267.9889,0.00018695,2.69e-05,0.0,0 STARLINK-4522,1 53388U 22097A   23035.72763419  .00002690  00000-0  18695-3 0  9998,2 53388  53.2145 152.2392 0001417  92.1266 267.9889 15.08853043 28413,6917.841,95.437,540.686,538.725,0.0
